start=new Date('2021-09-11T00:00:00.000Z').valueOf();
sats=[{"GP_ID":"184474876","CLASSIFICATION_TYPE":"U","ELEMENT_SET_NO":"999","COUNTRY_CODE":"US","OBJECT_NAME":"STARLINK-1780","EPHEMERIS_TYPE":"0","OBJECT_TYPE":"PAYLOAD","MEAN_MOTION_DDOT":"0.0000000000000","MEAN_MOTION_DOT":"0.00000134","DECAY_DATE":null,"RA_OF_ASC_NODE":"47.5292","SEMIMAJOR_AXIS":"6925.348","MEAN_MOTION":"15.06400025","FILE":"3112758","PERIOD":"95.592","SITE":"AFETR","TIME_SYSTEM":"UTC","REF_FRAME":"TEME","EPOCH":"2021-09-10T21:01:57.446112","CENTER_NAME":"EARTH","TLE_LINE2":"2 46684  53.0561  47.5292 0001803  94.6622 265.4573 15.06400025 49828","NORAD_CAT_ID":"46684","PERIAPSIS":"545.965","MEAN_ANOMALY":"265.4573","MEAN_ELEMENT_THEORY":"SGP4","APOAPSIS":"548.462","REV_AT_EPOCH":"4982","RCS_SIZE":"LARGE","BSTAR":"0.00002792500000","ECCENTRICITY":"0.00018030","INCLINATION":"53.0561","ARG_OF_PERICENTER":"94.6622","TLE_LINE1":"1 46684U 20073Q   21253.87635933  .00000134  00000-0  27925-4 0  9994","LAUNCH_DATE":"2020-10-18","OBJECT_ID":"2020-073Q"},{"RA_OF_ASC_NODE":"62.8454","DECAY_DATE":null,"MEAN_MOTION_DOT":"0.00002692","MEAN_MOTION_DDOT":"0.0000000000000","EPHEMERIS_TYPE":"0","OBJECT_TYPE":"PAYLOAD","COUNTRY_CODE":"US","OBJECT_NAME":"STARLINK-1781","GP_ID":"184473624","CLASSIFICATION_TYPE":"U","ELEMENT_SET_NO":"999","PERIOD":"95.593","SITE":"AFETR","MEAN_MOTION":"15.06382772","FILE":"3112758","SEMIMAJOR_AXIS":"6925.401","REV_AT_EPOCH":"4959","MEAN_ELEMENT_THEORY":"SGP4","APOAPSIS":"548.247","MEAN_ANOMALY":"287.5583","CENTER_NAME":"EARTH","PERIAPSIS":"546.286","TLE_LINE2":"2 46685  53.0551  62.8454 0001416  72.5560 287.5583 15.06382772 49592","NORAD_CAT_ID":"46685","EPOCH":"2021-09-10T19:11:09.894048","TIME_SYSTEM":"UTC","REF_FRAME":"TEME","LAUNCH_DATE":"2020-10-18","OBJECT_ID":"2020-073R","TLE_LINE1":"1 46685U 20073R   21253.79942007  .00002692  00000-0  19965-3 0  9994","ECCENTRICITY":"0.00014160","ARG_OF_PERICENTER":"72.5560","INCLINATION":"53.0551","BSTAR":"0.00019965000000","RCS_SIZE":"LARGE"},{"SEMIMAJOR_AXIS":"6925.349","FILE":"3112758","MEAN_MOTION":"15.06399952","SITE":"AFETR","PERIOD":"95.592","ELEMENT_SET_NO":"999","CLASSIFICATION_TYPE":"U","GP_ID":"184473874","OBJECT_NAME":"STARLINK-1783","COUNTRY_CODE":"US","EPHEMERIS_TYPE":"0","OBJECT_TYPE":"PAYLOAD","MEAN_MOTION_DDOT":"0.0000000000000","MEAN_MOTION_DOT":"-0.00000181","DECAY_DATE":null,"RA_OF_ASC_NODE":"62.9406","RCS_SIZE":"LARGE","BSTAR":"0.00000678200000","INCLINATION":"53.0551","ARG_OF_PERICENTER":"109.7795","ECCENTRICITY":"0.00016520","TLE_LINE1":"1 46686U 20073S   21253.78098694 -.00000181  00000-0  67820-5 0  9995","OBJECT_ID":"2020-073S","LAUNCH_DATE":"2020-10-18","REF_FRAME":"TEME","TIME_SYSTEM":"UTC","EPOCH":"2021-09-10T18:44:37.271616","TLE_LINE2":"2 46686  53.0551  62.9406 0001652 109.7795 250.3372 15.06399952 49598","PERIAPSIS":"546.070","NORAD_CAT_ID":"46686","CENTER_NAME":"EARTH","MEAN_ANOMALY":"250.3372","APOAPSIS":"548.358","MEAN_ELEMENT_THEORY":"SGP4","REV_AT_EPOCH":"4959"},{"EPHEMERIS_TYPE":"0","OBJECT_TYPE":"PAYLOAD","GP_ID":"184474626","CLASSIFICATION_TYPE":"U","ELEMENT_SET_NO":"999","COUNTRY_CODE":"US","OBJECT_NAME":"STARLINK-1784","DECAY_DATE":null,"RA_OF_ASC_NODE":"28.2889","MEAN_MOTION_DDOT":"0.0000000000000","MEAN_MOTION_DOT":"0.00000442","SEMIMAJOR_AXIS":"6925.340","FILE":"3112758","MEAN_MOTION":"15.06402912","PERIOD":"95.592","SITE":"AFETR","CENTER_NAME":"EARTH","PERIAPSIS":"546.260","TLE_LINE2":"2 46687  53.0559  28.2889 0001364 107.7152 252.3986 15.06402912 50071","NORAD_CAT_ID":"46687","MEAN_ANOMALY":"252.3986","TIME_SYSTEM":"UTC","REF_FRAME":"TEME","EPOCH":"2021-09-10T16:49:50.100384","REV_AT_EPOCH":"5007","APOAPSIS":"548.149","MEAN_ELEMENT_THEORY":"SGP4","BSTAR":"0.00004854100000","ECCENTRICITY":"0.00013640","ARG_OF_PERICENTER":"107.7152","INCLINATION":"53.0559","RCS_SIZE":"LARGE","OBJECT_ID":"2020-073T","LAUNCH_DATE":"2020-10-18","TLE_LINE1":"1 46687U 20073T   21253.70127431  .00000442  00000-0  48541-4 0  9997"},{"REF_FRAME":"TEME","TIME_SYSTEM":"UTC","EPOCH":"2021-09-10T20:23:21.129504","TLE_LINE2":"2 46688  53.0575  60.9494 0001130  73.7068 286.4056 15.31213073 49636","NORAD_CAT_ID":"46688","PERIAPSIS":"471.420","CENTER_NAME":"EARTH","MEAN_ANOMALY":"286.4056","MEAN_ELEMENT_THEORY":"SGP4","APOAPSIS":"472.968","REV_AT_EPOCH":"4963","RCS_SIZE":"LARGE","BSTAR":"0.01129100000000","INCLINATION":"53.0575","ARG_OF_PERICENTER":"73.7068","ECCENTRICITY":"0.00011300","TLE_LINE1":"1 46688U 20073U   21253.84955011  .00362028  00000-0  11291-1 0  9996","OBJECT_ID":"2020-073U","LAUNCH_DATE":"2020-10-18","ELEMENT_SET_NO":"999","CLASSIFICATION_TYPE":"U","GP_ID":"184475376","OBJECT_NAME":"STARLINK-1786","COUNTRY_CODE":"US","EPHEMERIS_TYPE":"0","OBJECT_TYPE":"PAYLOAD","MEAN_MOTION_DDOT":"0.0000000000000","MEAN_MOTION_DOT":"0.00362028","DECAY_DATE":null,"RA_OF_ASC_NODE":"60.9494","SEMIMAJOR_AXIS":"6850.329","MEAN_MOTION":"15.31213073","FILE":"3112758","SITE":"AFETR","PERIOD":"94.043"},{"EPHEMERIS_TYPE":"0","OBJECT_TYPE":"PAYLOAD","ELEMENT_SET_NO":"999","GP_ID":"184474124","CLASSIFICATION_TYPE":"U","OBJECT_NAME":"STARLINK-1788","COUNTRY_CODE":"US","DECAY_DATE":null,"RA_OF_ASC_NODE":"62.5987","MEAN_MOTION_DDOT":"0.0000000000000","MEAN_MOTION_DOT":"0.00001168","SEMIMAJOR_AXIS":"6925.368","FILE":"3112758","MEAN_MOTION":"15.06393754","SITE":"AFETR","PERIOD":"95.593","NORAD_CAT_ID":"46689","TLE_LINE2":"2 46689  53.0556  62.5987 0002026  97.8452 262.2767 15.06393754 50854","PERIAPSIS":"545.830","CENTER_NAME":"EARTH","MEAN_ANOMALY":"262.2767","REF_FRAME":"TEME","TIME_SYSTEM":"UTC","EPOCH":"2021-09-10T20:36:05.280480","REV_AT_EPOCH":"5085","MEAN_ELEMENT_THEORY":"SGP4","APOAPSIS":"548.636","BSTAR":"0.00009733400000","ARG_OF_PERICENTER":"97.8452","INCLINATION":"53.0556","ECCENTRICITY":"0.00020260","RCS_SIZE":"LARGE","OBJECT_ID":"2020-073V","LAUNCH_DATE":"2020-10-18","TLE_LINE1":"1 46689U 20073V   21253.85839445  .00001168  00000-0  97334-4 0  9990"},{"EPOCH":"2021-09-10T15:50:07.234080","REF_FRAME":"TEME","TIME_SYSTEM":"UTC","MEAN_ANOMALY":"255.7703","NORAD_CAT_ID":"46690","TLE_LINE2":"2 46690  53.0560  38.4748 0001660 104.3471 255.7703 15.06400321 49928","PERIAPSIS":"546.063","CENTER_NAME":"EARTH","MEAN_ELEMENT_THEORY":"SGP4","APOAPSIS":"548.362","REV_AT_EPOCH":"4992","RCS_SIZE":"LARGE","INCLINATION":"53.0560","ARG_OF_PERICENTER":"104.3471","ECCENTRICITY":"0.00016600","BSTAR":"0.00010590000000","TLE_LINE1":"1 46690U 20073W   21253.65980595  .00001296  00000-0  10590-3 0  9993","LAUNCH_DATE":"2020-10-18","OBJECT_ID":"2020-073W","OBJECT_NAME":"STARLINK-1789","COUNTRY_CODE":"US","ELEMENT_SET_NO":"999","GP_ID":"184474374","CLASSIFICATION_TYPE":"U","OBJECT_TYPE":"PAYLOAD","EPHEMERIS_TYPE":"0","MEAN_MOTION_DOT":"0.00001296","MEAN_MOTION_DDOT":"0.0000000000000","RA_OF_ASC_NODE":"38.4748","DECAY_DATE":null,"SEMIMAJOR_AXIS":"6925.348","SITE":"AFETR","PERIOD":"95.592","MEAN_MOTION":"15.06400321","FILE":"3112758"},{"MEAN_ANOMALY":"270.6400","TLE_LINE2":"2 46691  53.0562  47.5976 0001570  89.4769 270.6400 15.06390872 49815","NORAD_CAT_ID":"46691","PERIAPSIS":"546.154","CENTER_NAME":"EARTH","EPOCH":"2021-09-10T20:35:25.817280","REF_FRAME":"TEME","TIME_SYSTEM":"UTC","REV_AT_EPOCH":"4981","MEAN_ELEMENT_THEORY":"SGP4","APOAPSIS":"548.329","ARG_OF_PERICENTER":"89.4769","INCLINATION":"53.0562","ECCENTRICITY":"0.00015700","BSTAR":"-0.00001143600000","RCS_SIZE":"LARGE","LAUNCH_DATE":"2020-10-18","OBJECT_ID":"2020-073X","TLE_LINE1":"1 46691U 20073X   21253.85793770 -.00000452  00000-0 -11436-4 0  9999","EPHEMERIS_TYPE":"0","OBJECT_TYPE":"PAYLOAD","OBJECT_NAME":"STARLINK-1790","COUNTRY_CODE":"US","ELEMENT_SET_NO":"999","CLASSIFICATION_TYPE":"U","GP_ID":"184475126","RA_OF_ASC_NODE":"47.5976","DECAY_DATE":null,"MEAN_MOTION_DOT":"-0.00000452","MEAN_MOTION_DDOT":"0.0000000000000","SEMIMAJOR_AXIS":"6925.377","SITE":"AFETR","PERIOD":"95.593","MEAN_MOTION":"15.06390872","FILE":"3112758"},{"PERIOD":"95.592","SITE":"AFETR","FILE":"3112758","MEAN_MOTION":"15.06399383","SEMIMAJOR_AXIS":"6925.350","RA_OF_ASC_NODE":"62.6682","DECAY_DATE":null,"MEAN_MOTION_DOT":"0.00001519","MEAN_MOTION_DDOT":"0.0000000000000","EPHEMERIS_TYPE":"0","OBJECT_TYPE":"PAYLOAD","COUNTRY_CODE":"US","OBJECT_NAME":"STARLINK-1791","CLASSIFICATION_TYPE":"U","GP_ID":"184474877","ELEMENT_SET_NO":"999","OBJECT_ID":"2020-073Y","LAUNCH_DATE":"2020-10-18","TLE_LINE1":"1 46692U 20073Y   21253.84364545  .00001519  00000-0  12088-3 0  9999","ECCENTRICITY":"0.00015630","ARG_OF_PERICENTER":"104.0835","INCLINATION":"53.0542","BSTAR":"0.00012088000000","RCS_SIZE":"LARGE","REV_AT_EPOCH":"4960","MEAN_ELEMENT_THEORY":"SGP4","APOAPSIS":"548.298","MEAN_ANOMALY":"256.0328","CENTER_NAME":"EARTH","PERIAPSIS":"546.133","TLE_LINE2":"2 46692  53.0542  62.6682 0001563 104.0835 256.0328 15.06399383 49606","NORAD_CAT_ID":"46692","EPOCH":"2021-09-10T20:14:50.966880","TIME_SYSTEM":"UTC","REF_FRAME":"TEME"},{"MEAN_MOTION_DDOT":"0.0000000000000","MEAN_MOTION_DOT":"-0.00000443","DECAY_DATE":null,"RA_OF_ASC_NODE":"48.4703","ELEMENT_SET_NO":"999","CLASSIFICATION_TYPE":"U","GP_ID":"184473625","OBJECT_NAME":"STARLINK-1792","COUNTRY_CODE":"US","EPHEMERIS_TYPE":"0","OBJECT_TYPE":"PAYLOAD","MEAN_MOTION":"15.06386940","FILE":"3112758","SITE":"AFETR","PERIOD":"95.593","SEMIMAJOR_AXIS":"6925.389","APOAPSIS":"548.254","MEAN_ELEMENT_THEORY":"SGP4","REV_AT_EPOCH":"4978","REF_FRAME":"TEME","TIME_SYSTEM":"UTC","EPOCH":"2021-09-10T15:54:06.897312","NORAD_CAT_ID":"46693","TLE_LINE2":"2 46693  53.0555  48.4703 0001444 100.5460 259.5692 15.06386940 49786","PERIAPSIS":"546.254","CENTER_NAME":"EARTH","MEAN_ANOMALY":"259.5692","TLE_LINE1":"1 46693U 20073Z   21253.66257983 -.00000443  00000-0 -10835-4 0  9993","OBJECT_ID":"2020-073Z","LAUNCH_DATE":"2020-10-18","RCS_SIZE":"LARGE","BSTAR":"-0.00001083500000","ARG_OF_PERICENTER":"100.5460","INCLINATION":"53.0555","ECCENTRICITY":"0.00014440"}];
